start=new Date('2022-03-20T00:00:00.000Z').valueOf();
sats=[{"PERIAPSIS":"353.450","EPOCH":"2022-03-19T22:00:01.999584","ARG_OF_PERICENTER":"13.0365","MEAN_MOTION_DOT":"-0.00719455","MEAN_ANOMALY":"105.5275","RA_OF_ASC_NODE":"202.6583","INCLINATION":"53.2171","REV_AT_EPOCH":"371","GP_ID":"199187238","SEMIMAJOR_AXIS":"6733.416","OBJECT_ID":"2022-001B","ECCENTRICITY":"0.00027200","REF_FRAME":"TEME","SITE":"AFETR","EPHEMERIS_TYPE":"0","MEAN_ELEMENT_THEORY":"SGP4","TLE_LINE2":"2 50804  53.2171 202.6583 0002720  13.0365 105.5275 15.71265557  3713","APOAPSIS":"357.113","ELEMENT_SET_NO":"999","LAUNCH_DATE":"2022-01-06","MEAN_MOTION":"15.71265557","TLE_LINE1":"1 50804U 22001B   22078.91668981 -.00719455  00000-0 -60531-2 0  9999","NORAD_CAT_ID":"50804","FILE":"3366144","RCS_SIZE":"LARGE","OBJECT_TYPE":"PAYLOAD","PERIOD":"91.646","MEAN_MOTION_DDOT":"0.0000000000000","DECAY_DATE":null,"COUNTRY_CODE":"US","CLASSIFICATION_TYPE":"U","OBJECT_NAME":"STARLINK-3323","CENTER_NAME":"EARTH","TIME_SYSTEM":"UTC","BSTAR":"-0.00605310000000"},{"CLASSIFICATION_TYPE":"U","OBJECT_NAME":"STARLINK-3333","DECAY_DATE":null,"MEAN_MOTION_DDOT":"0.0000000000000","COUNTRY_CODE":"US","PERIOD":"91.638","OBJECT_TYPE":"PAYLOAD","FILE":"3366144","RCS_SIZE":"LARGE","BSTAR":"-0.00602210000000","TIME_SYSTEM":"UTC","CENTER_NAME":"EARTH","EPHEMERIS_TYPE":"0","SITE":"AFETR","REF_FRAME":"TEME","ECCENTRICITY":"0.00025140","NORAD_CAT_ID":"50805","TLE_LINE1":"1 50805U 22001C   22078.91668981 -.00719591  00000-0 -60221-2 0  9997","MEAN_MOTION":"15.71393415","LAUNCH_DATE":"2022-01-06","APOAPSIS":"356.608","ELEMENT_SET_NO":"999","TLE_LINE2":"2 50805  53.2171 202.6579 0002514  15.3709 104.3970 15.71393415  3711","MEAN_ELEMENT_THEORY":"SGP4","OBJECT_ID":"2022-001C","SEMIMAJOR_AXIS":"6733.051","GP_ID":"199188490","MEAN_ANOMALY":"104.3970","MEAN_MOTION_DOT":"-0.00719591","ARG_OF_PERICENTER":"15.3709","EPOCH":"2022-03-19T22:00:01.999584","PERIAPSIS":"353.223","REV_AT_EPOCH":"371","INCLINATION":"53.2171","RA_OF_ASC_NODE":"202.6579"},{"TLE_LINE1":"1 50806U 22001D   22078.91668981 -.00722829  00000-0 -60186-2 0  9996","NORAD_CAT_ID":"50806","ELEMENT_SET_NO":"999","APOAPSIS":"356.154","MEAN_MOTION":"15.71523189","LAUNCH_DATE":"2022-01-06","TLE_LINE2":"2 50806  53.2171 202.6572 0002389  11.5676 109.3650 15.71523189  3719","MEAN_ELEMENT_THEORY":"SGP4","EPHEMERIS_TYPE":"0","SITE":"AFETR","REF_FRAME":"TEME","ECCENTRICITY":"0.00023890","BSTAR":"-0.00601860000000","TIME_SYSTEM":"UTC","CENTER_NAME":"EARTH","MEAN_MOTION_DDOT":"0.0000000000000","DECAY_DATE":null,"COUNTRY_CODE":"US","CLASSIFICATION_TYPE":"U","OBJECT_NAME":"STARLINK-3335","PERIOD":"91.631","RCS_SIZE":"LARGE","FILE":"3366144","OBJECT_TYPE":"PAYLOAD","REV_AT_EPOCH":"371","INCLINATION":"53.2171","RA_OF_ASC_NODE":"202.6572","MEAN_ANOMALY":"109.3650","MEAN_MOTION_DOT":"-0.00722829","EPOCH":"2022-03-19T22:00:01.999584","PERIAPSIS":"352.937","ARG_OF_PERICENTER":"11.5676","OBJECT_ID":"2022-001D","SEMIMAJOR_AXIS":"6732.680","GP_ID":"199188715"},{"INCLINATION":"53.2172","REV_AT_EPOCH":"371","RA_OF_ASC_NODE":"202.6541","MEAN_ANOMALY":"113.0957","EPOCH":"2022-03-19T22:00:01.999584","PERIAPSIS":"351.171","ARG_OF_PERICENTER":"12.1157","MEAN_MOTION_DOT":"-0.00719603","SEMIMAJOR_AXIS":"6731.226","OBJECT_ID":"2022-001E","GP_ID":"199187489","TLE_LINE1":"1 50807U 22001E   22078.91668981 -.00719603  00000-0 -58598-2 0  9997","NORAD_CAT_ID":"50807","TLE_LINE2":"2 50807  53.2172 202.6541 0002853  12.1157 113.0957 15.72032393  3719","MEAN_ELEMENT_THEORY":"SGP4","ELEMENT_SET_NO":"999","APOAPSIS":"355.012","MEAN_MOTION":"15.72032393","LAUNCH_DATE":"2022-01-06","SITE":"AFETR","EPHEMERIS_TYPE":"0","ECCENTRICITY":"0.00028530","REF_FRAME":"TEME","BSTAR":"-0.00585980000000","CENTER_NAME":"EARTH","TIME_SYSTEM":"UTC","PERIOD":"91.601","COUNTRY_CODE":"US","DECAY_DATE":null,"MEAN_MOTION_DDOT":"0.0000000000000","CLASSIFICATION_TYPE":"U","OBJECT_NAME":"STARLINK-3353","OBJECT_TYPE":"PAYLOAD","FILE":"3366144","RCS_SIZE":"LARGE"},{"PERIAPSIS":"351.468","EPOCH":"2022-03-19T22:00:01.999584","ARG_OF_PERICENTER":"4.2842","MEAN_MOTION_DOT":"-0.00721042","MEAN_ANOMALY":"118.8647","RA_OF_ASC_NODE":"202.6557","INCLINATION":"53.2171","REV_AT_EPOCH":"371","GP_ID":"199187739","SEMIMAJOR_AXIS":"6731.954","OBJECT_ID":"2022-001F","ECCENTRICITY":"0.00034920","REF_FRAME":"TEME","SITE":"AFETR","EPHEMERIS_TYPE":"0","TLE_LINE2":"2 50808  53.2171 202.6557 0003492   4.2842 118.8647 15.71777614  3719","MEAN_ELEMENT_THEORY":"SGP4","ELEMENT_SET_NO":"999","APOAPSIS":"356.169","LAUNCH_DATE":"2022-01-06","MEAN_MOTION":"15.71777614","TLE_LINE1":"1 50808U 22001F   22078.91668981 -.00721042  00000-0 -59350-2 0  9995","NORAD_CAT_ID":"50808","RCS_SIZE":"LARGE","FILE":"3366144","OBJECT_TYPE":"PAYLOAD","PERIOD":"91.616","MEAN_MOTION_DDOT":"0.0000000000000","DECAY_DATE":null,"COUNTRY_CODE":"US","CLASSIFICATION_TYPE":"U","OBJECT_NAME":"STARLINK-3355","CENTER_NAME":"EARTH","TIME_SYSTEM":"UTC","BSTAR":"-0.00593500000000"},{"TIME_SYSTEM":"UTC","CENTER_NAME":"EARTH","BSTAR":"-0.00595500000000","FILE":"3366144","RCS_SIZE":"LARGE","OBJECT_TYPE":"PAYLOAD","MEAN_MOTION_DDOT":"0.0000000000000","DECAY_DATE":null,"COUNTRY_CODE":"US","CLASSIFICATION_TYPE":"U","OBJECT_NAME":"STARLINK-3232","PERIOD":"91.624","ELEMENT_SET_NO":"999","APOAPSIS":"355.885","MEAN_MOTION":"15.71648896","LAUNCH_DATE":"2022-01-06","MEAN_ELEMENT_THEORY":"SGP4","TLE_LINE2":"2 50809  53.2171 202.6566 0002524  16.0938 105.9668 15.71648896  3711","TLE_LINE1":"1 50809U 22001G   22078.91668981 -.00719363  00000-0 -59550-2 0  9991","NORAD_CAT_ID":"50809","REF_FRAME":"TEME","ECCENTRICITY":"0.00025240","EPHEMERIS_TYPE":"0","SITE":"AFETR","GP_ID":"199187990","OBJECT_ID":"2022-001G","SEMIMAJOR_AXIS":"6732.321","RA_OF_ASC_NODE":"202.6566","REV_AT_EPOCH":"371","INCLINATION":"53.2171","MEAN_MOTION_DOT":"-0.00719363","PERIAPSIS":"352.487","EPOCH":"2022-03-19T22:00:01.999584","ARG_OF_PERICENTER":"16.0938","MEAN_ANOMALY":"105.9668"},{"REF_FRAME":"TEME","ECCENTRICITY":"0.00028830","EPHEMERIS_TYPE":"0","SITE":"AFETR","ELEMENT_SET_NO":"999","APOAPSIS":"355.397","LAUNCH_DATE":"2022-01-06","MEAN_MOTION":"15.71904549","MEAN_ELEMENT_THEORY":"SGP4","TLE_LINE2":"2 50810  53.2171 202.6549 0002883  12.0225 112.1770 15.71904549  3711","TLE_LINE1":"1 50810U 22001H   22078.91668981 -.00719516  00000-0 -58910-2 0  9992","NORAD_CAT_ID":"50810","OBJECT_TYPE":"PAYLOAD","FILE":"3366144","RCS_SIZE":"LARGE","DECAY_DATE":null,"MEAN_MOTION_DDOT":"0.0000000000000","COUNTRY_CODE":"US","CLASSIFICATION_TYPE":"U","OBJECT_NAME":"STARLINK-3348","PERIOD":"91.609","TIME_SYSTEM":"UTC","CENTER_NAME":"EARTH","BSTAR":"-0.00589100000000","MEAN_MOTION_DOT":"-0.00719516","PERIAPSIS":"351.515","EPOCH":"2022-03-19T22:00:01.999584","ARG_OF_PERICENTER":"12.0225","MEAN_ANOMALY":"112.1770","RA_OF_ASC_NODE":"202.6549","REV_AT_EPOCH":"371","INCLINATION":"53.2171","GP_ID":"199188215","OBJECT_ID":"2022-001H","SEMIMAJOR_AXIS":"6731.591"},{"REF_FRAME":"TEME","ECCENTRICITY":"0.00029580","EPHEMERIS_TYPE":"0","SITE":"AFETR","MEAN_MOTION":"15.72160181","LAUNCH_DATE":"2022-01-06","ELEMENT_SET_NO":"999","APOAPSIS":"354.717","TLE_LINE2":"2 50811  53.2172 202.6530 0002958  11.6503 114.5346 15.72160181  3712","MEAN_ELEMENT_THEORY":"SGP4","NORAD_CAT_ID":"50811","TLE_LINE1":"1 50811U 22001J   22078.91668981 -.00719576  00000-0 -58274-2 0  9992","FILE":"3366144","RCS_SIZE":"LARGE","OBJECT_TYPE":"PAYLOAD","CLASSIFICATION_TYPE":"U","OBJECT_NAME":"STARLINK-3347","COUNTRY_CODE":"US","DECAY_DATE":null,"MEAN_MOTION_DDOT":"0.0000000000000","PERIOD":"91.594","TIME_SYSTEM":"UTC","CENTER_NAME":"EARTH","BSTAR":"-0.00582740000000","MEAN_MOTION_DOT":"-0.00719576","ARG_OF_PERICENTER":"11.6503","PERIAPSIS":"350.735","EPOCH":"2022-03-19T22:00:01.999584","MEAN_ANOMALY":"114.5346","RA_OF_ASC_NODE":"202.6530","REV_AT_EPOCH":"371","INCLINATION":"53.2172","GP_ID":"199186989","OBJECT_ID":"2022-001J","SEMIMAJOR_AXIS":"6730.861"},{"SEMIMAJOR_AXIS":"6733.988","OBJECT_ID":"2022-001K","GP_ID":"199187740","INCLINATION":"53.2171","REV_AT_EPOCH":"371","RA_OF_ASC_NODE":"202.6456","MEAN_ANOMALY":"125.1455","ARG_OF_PERICENTER":"358.1819","EPOCH":"2022-03-19T22:00:01.999584","PERIAPSIS":"353.934","MEAN_MOTION_DOT":"-0.00726521","BSTAR":"-0.00616950000000","CENTER_NAME":"EARTH","TIME_SYSTEM":"UTC","PERIOD":"91.658","CLASSIFICATION_TYPE":"U","OBJECT_NAME":"STARLINK-3338","MEAN_MOTION_DDOT":"0.0000000000000","DECAY_DATE":null,"COUNTRY_CODE":"US","RCS_SIZE":"LARGE","FILE":"3366144","OBJECT_TYPE":"PAYLOAD","NORAD_CAT_ID":"50812","TLE_LINE1":"1 50812U 22001K   22078.91668981 -.00726521  00000-0 -61695-2 0  9992","TLE_LINE2":"2 50812  53.2171 202.6456 0002850 358.1819 125.1455 15.71065424  3711","MEAN_ELEMENT_THEORY":"SGP4","MEAN_MOTION":"15.71065424","LAUNCH_DATE":"2022-01-06","ELEMENT_SET_NO":"999","APOAPSIS":"357.772","SITE":"AFETR","EPHEMERIS_TYPE":"0","ECCENTRICITY":"0.00028500","REF_FRAME":"TEME"},{"GP_ID":"199188491","SEMIMAJOR_AXIS":"6730.594","OBJECT_ID":"2022-001L","RA_OF_ASC_NODE":"202.6518","INCLINATION":"53.2172","REV_AT_EPOCH":"371","PERIAPSIS":"350.395","EPOCH":"2022-03-19T22:00:01.999584","ARG_OF_PERICENTER":"10.3496","MEAN_MOTION_DOT":"-0.00719694","MEAN_ANOMALY":"116.6946","CENTER_NAME":"EARTH","TIME_SYSTEM":"UTC","BSTAR":"-0.00580490000000","RCS_SIZE":"LARGE","FILE":"3366144","OBJECT_TYPE":"PAYLOAD","PERIOD":"91.588","COUNTRY_CODE":"US","DECAY_DATE":null,"MEAN_MOTION_DDOT":"0.0000000000000","CLASSIFICATION_TYPE":"U","OBJECT_NAME":"STARLINK-3349","TLE_LINE2":"2 50813  53.2172 202.6518 0003068  10.3496 116.6946 15.72253707  3716","MEAN_ELEMENT_THEORY":"SGP4","ELEMENT_SET_NO":"999","APOAPSIS":"354.524","MEAN_MOTION":"15.72253707","LAUNCH_DATE":"2022-01-06","TLE_LINE1":"1 50813U 22001L   22078.91668981 -.00719694  00000-0 -58049-2 0  9995","NORAD_CAT_ID":"50813","ECCENTRICITY":"0.00030680","REF_FRAME":"TEME","SITE":"AFETR","EPHEMERIS_TYPE":"0"}];
